Grocery_Name,Street_Address,City,Zip_Code,Council_District,Location,latitude,longitude
WESTSIDE MARKET 2,998 S ROBERTSON BLVD #105,LOS ANGELES,90035-1626,5,"(34.0594, -118.3836)",34.0594, -118.3836
VONS #2100 | VONS 2100,9860 NATIONAL BLVD,LOS ANGELES,90034-2713,5,"(34.0307, -118.4019)",34.0307, -118.4019
MICKEY FINE AT WATT PLAZA,1875   CENTURY PARKS  E SUITE #E,LOS ANGELES,90067-2337,5,"(34.061, -118.4149)",34.061, -118.4149
FRANKS LIQUOR & MARKIET,10559 SANTA MONICA BLVD,LOS ANGELES,90025-4907,5,"(34.0547, -118.4283)",34.0547, -118.4283
BAHAY NATIN SEAFOOD MARKET,9903   VENICE BLVD,LOS ANGELES,90034-5111,5,"(34.0235, -118.3992)",34.0235, -118.3992
BEYOND VEGAN FAIRFAX,485 S FAIRFAX AVENUE,LOS ANGELES,90036-3122,5,"(34.0676, -118.3617)",34.0676, -118.3617
J MARKET,8253 W 3RD STREET,LOS ANGELES,90048-4315,5,"(34.0725, -118.3693)",34.0725, -118.3693
WHOLEFOODS MARKET,1050 GAYLEY AVENUE,LOS ANGELES,90024-3402,5,"(34.0617, -118.4477)",34.0617, -118.4477
7-ELEVEN STORE 16114C,10834 SANTA MONICA BLVD,LOS ANGELES,90025-4617,5,"(0.0, 0.0)",0.0, 0.0
7 ELEVEN STORE 18837E,3450 OVERLAND AVENUE,LOS ANGELES,90034-5406,5,"(34.0251, -118.4119)",34.0251, -118.4119
MUNCHIES,8859 W PICO BLVD,LOS ANGELES,90035-3335,5,"(34.0553, -118.3851)",34.0553, -118.3851
FARID AHMAD KHANLOU/JORDAN MARKET,1449 WESTWOOD BLVD,LOS ANGELES,90024-4911,5,"(34.0546, -118.4412)",34.0546, -118.4412
RALPHS STORE #198,9616 W PICO BLVD,LOS ANGELES,90035-1204,5,"(34.0551, -118.3981)",34.0551, -118.3981
RALPHS GROCERY CO #39,260 S LA BREA AVENUE,LOS ANGELES,90036-3023,5,"(34.0697, -118.344)",34.0697, -118.344
7-ELEVEN STORE 19399C,1665 S ROBERTSON BLVD,LOS ANGELES,90035-4245,5,"(34.0493, -118.3851)",34.0493, -118.3851
GLATT WESTERN KOSHER,444 N FAIRFAX AVENUE,LOS ANGELES,90036-1717,5,"(34.0792, -118.3614)",34.0792, -118.3614
A & S MARKET,10867 VENICE BLVD,LOS ANGELES,90034-7109,5,"(34.0166, -118.4107)",34.0166, -118.4107
SIMPANG ASIA | SIMPANG ASIA LLC,10433 NATIONAL BLVD #2,LOS ANGELES,90034-4681,5,"(34.0291, -118.4122)",34.0291, -118.4122
GELSONS MARKET #394,10250 SANTA MONICA BLVD,LOS ANGELES,90067-6501,5,"(34.0594, -118.4208)",34.0594, -118.4208
PALM TREE LIQUOR,10425   VENICE BLVD,LOS ANGELES,90034-6410,5,"(34.0202, -118.4046)",34.0202, -118.4046
STOP MARKET,958 GAYLEY AVENUE,LOS ANGELES,90024-2806,5,"(34.0628, -118.4483)",34.0628, -118.4483
YUMMY.COM,9769 W PICO BLVD,LOS ANGELES,90035-4718,5,"(34.0542, -118.4013)",34.0542, -118.4013
IM MARKET,7928 MELROSE AVENUE,LOS ANGELES,90046-7110,5,"(34.0837, -118.3623)",34.0837, -118.3623
7-ELEVEN STORE 18821B,11075 W OLYMPIC BLVD,LOS ANGELES,90064-1938,5,"(34.0407, -118.437)",34.0407, -118.437
SINAI KOSHER MARKET,8680 W PICO BLVD,LOS ANGELES,90035-2313,5,"(34.0542, -118.381)",34.0542, -118.381
VONS #2077 | VONS 2077,3118 S SEPULVEDA BLVD,LOS ANGELES,90034-4204,5,"(34.0257, -118.4273)",34.0257, -118.4273
SPROUTS # 411,8985   VENICE BLVD   SUITE #B,LOS ANGELES,90034-3347,5,"(34.0278, -118.393)",34.0278, -118.393
JAYDEN ENTERPRISES LLC,2964 N BEVERLY GLEN CIRCLE,LOS ANGELES,90077-1724,5,"(34.1278, -118.4445)",34.1278, -118.4445
VENICE DISCOUNT STORE,10911   VENICE BLVD,LOS ANGELES,90034-7009,5,"(34.016, -118.4122)",34.016, -118.4122
TRADER JOE'S D#7,10850 NATIONAL BLVD,LOS ANGELES,90064-4123,5,"(34.0302, -118.4216)",34.0302, -118.4216
TRADER JOE'S #31,263 S LA BREA AVENUE,LOS ANGELES,90036-3022,5,"(34.0696, -118.344)",34.0696, -118.344
TRADER JOE'S #119,3456 S SEPULVEDA BLVD,LOS ANGELES,90034-6010,5,"(34.0201, -118.4228)",34.0201, -118.4228
SMART & FINAL #395,11221 W PICO BLVD,LOS ANGELES,90064-1714,5,"(34.0356, -118.4378)",34.0356, -118.4378
ANARKALI EXPRESS,800 N SYCAMORE AVENUE,LOS ANGELES,90038-3317,5,"(34.0854, -118.3424)",34.0854, -118.3424
KAVITA GROCERY,10201   VENICE BLVD,LOS ANGELES,90034-5902,5,"(34.0219, -118.4023)",34.0219, -118.4023
BAO TO GO,8250   BEVERLY BLVD,LOS ANGELES,90048-4516,5,"(34.0758, -118.3698)",34.0758, -118.3698
SPROUTS FARMERS MARKET,1751 WESTWOOD BLVD,LOS ANGELES,90024-5607,5,"(34.0508, -118.4379)",34.0508, -118.4379
7-ELEVEN STORE 39012B,7353   MELROSE AVENUE,LOS ANGELES,90046-7573,5,"(34.0838, -118.3502)",34.0838, -118.3502
BIG LOTS #4600 | BIG LOTS STORE INC,3115 S SEPULVEDA BLVD,LOS ANGELES,90034-4203,5,"(34.0259, -118.4274)",34.0259, -118.4274
OLYMPIC ARCO GAS,8770 W OLYMPIC BLVD,LOS ANGELES,90035-1911,5,"(34.0593, -118.3831)",34.0593, -118.3831
JIGHAO LIN,1071 GAYLEY AVENUE,LOS ANGELES,90024-3401,5,"(34.0607, -118.447)",34.0607, -118.447
CVS/PHARMACY #9398,9618 W PICO BLVD #501,LOS ANGELES,90035-1279,5,"(34.0551, -118.3981)",34.0551, -118.3981
RALPHS GROCERY CO #156,10309 W OLYMPIC BLVD,LOS ANGELES,90064-2517,5,"(34.0522, -118.4175)",34.0522, -118.4175
7-ELEVEN STORE 18821C,11075 W OLYMPIC BLVD,LOS ANGELES,90064-1938,5,"(34.0407, -118.437)",34.0407, -118.437
7-ELEVEN,11075 W OLYMPIC BLVD,LOS ANGELES,90064-1938,5,"(34.0407, -118.4379)",34.0407, -118.4379
SMART & FINAL #330,10113 VENICE BLVD #330,LOS ANGELES,90034-5809,5,"(34.0224, -118.4004)",34.0224, -118.4004
LA BREA KOSHER MARKET,410 N LA BREA AVENUE,LOS ANGELES,90036-2626,5,"(34.0784, -118.344)",34.0784, -118.344
7-ELEVEN STORE 18820D,11143 VENICE BLVD,LOS ANGELES,90034-6915,5,"(34.0134, -118.4172)",34.0134, -118.4172
CHUTNEYNSPICE,567 S FAIRFAX AVENUE   BUILDING,LOS ANGELES,90036-3128,5,"(34.0655, -118.3617)",34.0655, -118.3617
#JUICEBAE,485 S FAIRFAX AVENUE,LOS ANGELES,90036-3122,5,"(34.0676, -118.3617)",34.0676, -118.3617
FIGUEROA MINI MARKET,8631 S FIGUEROA STREET,LOS ANGELES,90003-,8,"(0.0, 0.0)",0.0, 0.0
MAPLE LIQUOR JR MARKET,10421 S WESTERN AVENUE,LOS ANGELES,90047-4456,8,"(33.9416, -118.309)",33.9416, -118.309
NORM & WEST,6918 S WESTERN AVENUE,LOS ANGELES,90047-1841,8,"(33.9768, -118.3089)",33.9768, -118.3089
D&S MARKET,9069 S NORMANDIE AVENUE,LOS ANGELES,90044-2051,8,"(33.9547, -118.3002)",33.9547, -118.3002
T & J MARKET,9025 S MAIN STREET,LOS ANGELES,90003-3756,8,"(33.9544, -118.2738)",33.9544, -118.2738
DD'S DELI & MINI MARKET,1432 W FLORENCE AVENUE   BUILDING #A,LOS ANGELES,90047-2209,8,"(33.9743, -118.3016)",33.9743, -118.3016
MINI MARKET DON JOSE,4811 S WESTERN AVENUE,LOS ANGELES,90062-2325,8,"(33.9999, -118.309)",33.9999, -118.309
EL MOLINO MEXICAN DELICATESSEN,1573 W ADAMS BLVD,LOS ANGELES,90007-1514,8,"(34.0327, -118.2964)",34.0327, -118.2964
L.A. MINI MARKET,100 E CENTURY BLVD   SUITE #C,LOS ANGELES,90003-4710,8,"(33.9453, -118.2735)",33.9453, -118.2735
SUPERIOR GROCERS #108 | SUPERIOR SUPER WAREHOUSE,8811 S WESTERN AVENUE,LOS ANGELES,90047-3329,8,"(33.9579, -118.309)",33.9579, -118.309
EL SIN FIN MINI MARKET,7522 S HOOVER STREET,LOS ANGELES,90044-6008,8,"(33.971, -118.2869)",33.971, -118.2869
JELIAN'S DISCOUNT STORE,5710 S WESTERN AVENUE,LOS ANGELES,90062-2713,8,"(33.9902, -118.3086)",33.9902, -118.3086
CNA #2 MINIMART,8631 S FIGUEROA STREET,LOS ANGELES,90003-3211,8,"(33.9592, -118.2831)",33.9592, -118.2831
HOOVER STORE,7829 S HOOVER STREET,LOS ANGELES,90044-6031,8,"(33.9684, -118.2874)",33.9684, -118.2874
VENUS MARKET,10117 AVALON BLVD,LOS ANGELES,90003-4817,8,"(33.9442, -118.2651)",33.9442, -118.2651
FARM FRESH DAIRY,9803 AVALON BLVD,LOS ANGELES,90003-4314,8,"(33.9473, -118.2651)",33.9473, -118.2651
KATE'S MINI MARKET,660 W FLORENCE AVENUE,LOS ANGELES,90044-6104,8,"(33.9746, -118.2853)",33.9746, -118.2853
SUPER BUY LIQUOR,7224 S VERMONT AVENUE,LOS ANGELES,90044-5125,8,"(33.9742, -118.2914)",33.9742, -118.2914
LOS 3 HERNANDEZ MINI MARKET,1301 W JEFFERSON BLVD,LOS ANGELES,90007-3436,8,"(34.0255, -118.2948)",34.0255, -118.2948
L & G MINI MARKET DISCOUNT,6415 1/2 S VERMONT AVENUE,LOS ANGELES,90044-3625,8,"(33.9812, -118.2918)",33.9812, -118.2918
RALPHS GROCERY CO #274,1730 W MANCHESTER AVENUE,LOS ANGELES,90047-3034,8,"(33.9599, -118.3076)",33.9599, -118.3076
FAMILY DOLLAR INC #31527,7300 S WESTERN AVENUE,LOS ANGELES,90047-2253,8,"(33.9736, -118.3086)",33.9736, -118.3086
AVALON'S BEST MINI MARKET,11022 AVALON BLVD,LOS ANGELES,90061-3010,8,"(33.9354, -118.2651)",33.9354, -118.2651
ARLINGTON COMMUNITY MARKET,3798 ARLINGTON AVENUE,LOS ANGELES,90018-4367,8,"(34.0182, -118.3181)",34.0182, -118.3181
WESTERN GROCERY,3725 S WESTERN AVENUE,LOS ANGELES,90018-4434,8,"(34.0199, -118.3089)",34.0199, -118.3089
CRIS JR MINI MART & 99 CENT STORE #2,10032 S HOOVER STREET,LOS ANGELES,90044-4524,8,"(33.9452, -118.2869)",33.9452, -118.2869
LITTLE AFRICA MINI MARKET,8609 S BROADWAY,LOS ANGELES,90003-3319,8,"(33.9597, -118.2787)",33.9597, -118.2787
7-ELEVEN STORE 38388A,3770 S WESTERN AVENUE,LOS ANGELES,90018-4435,8,"(34.0187, -118.3085)",34.0187, -118.3085
EL REY MARKET,1471 W JEFFERSON BLVD,LOS ANGELES,90007-3455,8,"(34.0255, -118.2993)",34.0255, -118.2993
B & B LIQUOR MARKET,8207 S WESTERN AVENUE,LOS ANGELES,90047-3036,8,"(33.9644, -118.3089)",33.9644, -118.3089
DAVID & JASON MINI MARKET,1985 W ADAMS BLVD SUITE #103,LOS ANGELES,90018-3512,8,"(34.0331, -118.3082)",34.0331, -118.3082
GOLD LEAF FAMILLY MARKET,9333 S FIGUEROA STREET,LOS ANGELES,90003-3922,8,"(33.9516, -118.2828)",33.9516, -118.2828
LIAM'S MARKET,9128 S VERMONT AVENUE,LOS ANGELES,90044-4838,8,"(33.9534, -118.2912)",33.9534, -118.2912
ONE DOLLAR UP STORE,8906 S WESTERN AVENUE,LOS ANGELES,90047-3548,8,"(33.9562, -118.309)",33.9562, -118.309
WEST-SLAUSON MARKET,5800   WEST BLVD,LOS ANGELES,90043-3023,8,"(33.9887, -118.3349)",33.9887, -118.3349
SILVER DOLLAR LIQUOR CORPORATION,1650 W MANCHESTER AVENUE,LOS ANGELES,90047-5429,8,"(33.9599, -118.3057)",33.9599, -118.3057
ALOHA DELI,2406 S VERMONT AVENUE,LOS ANGELES,90007-1660,8,"(34.0341, -118.2915)",34.0341, -118.2915
A W MARKET,1582 1/2 W VERNON AVENUE,LOS ANGELES,90062-1830,8,"(34.0037, -118.3061)",34.0037, -118.3061
GOLDEN MARKET,7219 S WESTERN AVENUE,LOS ANGELES,90047-2252,8,"(33.9739, -118.3089)",33.9739, -118.3089
SUPER BARGAIN MARKET,10900 S MAIN STREET,LOS ANGELES,90061-2028,8,"(33.9373, -118.2738)",33.9373, -118.2738
7-ELEVEN STORE 39802B,9915 S BROADWAY,LOS ANGELES,90003-4125,8,"(33.9459, -118.2787)",33.9459, -118.2787
NUMERO UNO MARKET,9127 S FIGUEROA STREET,LOS ANGELES,90003-3905,8,"(33.9537, -118.2826)",33.9537, -118.2826
SUN MOON MARKET,1507 W 24TH STREET,LOS ANGELES,90007-1501,8,"(34.0345, -118.2944)",34.0345, -118.2944
MERIDA'S MARKET,1191 W 24TH STREET,LOS ANGELES,90007-1725,8,"(34.0345, -118.2862)",34.0345, -118.2862
TODOS MARKET,1888 W ADAMS BLVD,LOS ANGELES,90018-2747,8,"(34.0326, -118.3057)",34.0326, -118.3057
54TH ST MARKET,2731 W 54TH STREET,LOS ANGELES,90043-2643,8,"(33.9931, -118.3228)",33.9931, -118.3228
THE SUPERMARKET 98 PLUS,2625 S WESTERN AVENUE,LOS ANGELES,90018-2628,8,"(34.0315, -118.3089)",34.0315, -118.3089
HANDY MARKET | MANDY MARKET,1438 W 38TH STREET,LOS ANGELES,90062-1241,8,"(34.0173, -118.3031)",34.0173, -118.3031
SHYREAS LIQUOR,1753 W CENTURY BLVD,LOS ANGELES,90047-4226,8,"(33.9454, -118.3081)",33.9454, -118.3081
TOYIN MINI MARKET,1636 W VERNON AVENUE,LOS ANGELES,90062-1611,8,"(34.0037, -118.3079)",34.0037, -118.3079
SINAI MARKET,1820 W 54TH STREET,LOS ANGELES,90062-2601,8,"(33.9932, -118.3096)",33.9932, -118.3096
CENTRO MERCADO LATINO,4339 DALTON AVENUE,LOS ANGELES,90062-1813,8,"(34.0041, -118.3034)",34.0041, -118.3034
7-ELEVEN STORE #20545E | 7-ELEVEN STORE 20545E,4343 W SLAUSON AVENUE,LOS ANGELES,90043-2815,8,"(33.9888, -118.3508)",33.9888, -118.3508
MARINA'S MINI MARKET,6527 S FIGUEROA STREET,LOS ANGELES,90003-1029,8,"(33.9797, -118.2826)",33.9797, -118.2826
NEIGHBORHOOD MARKETS,10227 S BROADWAY,LOS ANGELES,90003-4576,8,"(33.9434, -118.2783)",33.9434, -118.2783
ANDRES MINI MARKET,9522 S MAIN STREET,LOS ANGELES,90003-4223,8,"(33.9499, -118.2738)",33.9499, -118.2738
7-ELEVEN STORE 37062A,7117 S VERMONT AVENUE,LOS ANGELES,90044-5248,8,"(33.9748, -118.2917)",33.9748, -118.2917
LA GROCERY STORE,4510 S WESTERN AVENUE,LOS ANGELES,90062-1607,8,"(34.0037, -118.3089)",34.0037, -118.3089
CENTRAL STORE,10105 S CENTRAL AVENUE,LOS ANGELES,90002-3318,8,"(33.9448, -118.2541)",33.9448, -118.2541
THE SPOT MARKET TOBACCO,2161 W CENTURY BLVD,LOS ANGELES,90047-4053,8,"(33.9456, -118.3174)",33.9456, -118.3174
JONES MARKET,9028 S BROADWAY,LOS ANGELES,90003-3631,8,"(33.954, -118.2782)",33.954, -118.2782
SUSANA'S MINI MARKET,5421 DENKER AVENUE,LOS ANGELES,90062-2829,8,"(33.993, -118.3045)",33.993, -118.3045
LUCKY MINI MARKET,1923 W MANCHESTER AVENUE,LOS ANGELES,90047-2924,8,"(33.9603, -118.3118)",33.9603, -118.3118
7-ELEVEN STORE 39760A,1752 W SLAUSON AVENUE SUITE #A,LOS ANGELES,90047-1119,8,"(33.9891, -118.3086)",33.9891, -118.3086
48TH STREET,2371 W 48TH STREET,LOS ANGELES,90043-1405,8,"(34.0, -118.3188)",34.0, -118.3188
DURANGO MARKET,11227 S FIGUEROA STREET,LOS ANGELES,90061-1421,8,"(33.9326, -118.2825)",33.9326, -118.2825
KB?S MUNCHIE SHACK,10032 S WESTERN AVENUE   APT #A,LOS ANGELES,90047-4289,8,"(33.9447, -118.3089)",33.9447, -118.3089
PETE'S MARKET,9141 S HOOVER STREET,LOS ANGELES,90044-6417,8,"(33.9536, -118.2869)",33.9536, -118.2869
EL NAYAR MINI MARKET,8301 S VERMONT AVENUE #D,LOS ANGELES,90044-3470,8,"(33.9636, -118.2917)",33.9636, -118.2917
RALPHS #48,3300 W SLAUSON AVENUE,LOS ANGELES,90043-2563,8,"(33.989, -118.3294)",33.989, -118.3294
CRENSHAW MINI MART,6431 CRENSHAW BLVD,LOS ANGELES,90043-3951,8,"(33.9814, -118.3308)",33.9814, -118.3308
LA BODEGA MARKET #3,2715 S WESTERN AVENUE SUITE #D,LOS ANGELES,90018-3031,8,"(34.0307, -118.3089)",34.0307, -118.3089
KING CARIBBEAN MINI MARKET,4809 S WESTERN AVENUE,LOS ANGELES,90062-2325,8,"(33.9999, -118.309)",33.9999, -118.309
MINI MARKET LA BENDICION,4824 S WESTERN AVENUE,LOS ANGELES,90062-2324,8,"(33.9994, -118.3089)",33.9994, -118.3089
A & A LIQUOR,6709 S NORMANDIE AVENUE,LOS ANGELES,90044-2568,8,"(33.9784, -118.3002)",33.9784, -118.3002
7-ELEVEN STORE 39807A,1691 W ADAMS BLVD,LOS ANGELES,90007-1533,8,"(34.0329, -118.2986)",34.0329, -118.2986
ALONDRA MINI MARKET,3765 S WESTERN AVENUE,LOS ANGELES,90018-4436,8,"(34.0187, -118.3089)",34.0187, -118.3089
PLAZA MARKET,106 W MANCHESTER AVENUE UNIT #D,LOS ANGELES,90003-3300,8,"(33.96, -118.2739)",33.96, -118.2739
HANK'S MINI MARKET,3301 W FLORENCE AVENUE,LOS ANGELES,90043-4705,8,"(33.9749, -118.3296)",33.9749, -118.3296
T & H MINI MART,1990 W JEFFERSON BLVD,LOS ANGELES,90018-3416,8,"(34.0255, -118.3146)",34.0255, -118.3146
FOOD 4 LESS #777,1820 W SLAUSON AVENUE,LOS ANGELES,90047-1126,8,"(33.9891, -118.3115)",33.9891, -118.3115
RINCON HONDURENO,1455 W 35TH STREET,LOS ANGELES,90018-3930,8,"(34.0249, -118.3019)",34.0249, -118.3019
MOTHER'S NUTRITIONAL CENTER,10223 S CENTRAL AVENUE,LOS ANGELES,90002-3320,8,"(33.9439, -118.2541)",33.9439, -118.2541
EL PUEBLO PRODUCE MARKET,4706 S WESTERN AVENUE,LOS ANGELES,90062-2320,8,"(34.0009, -118.3089)",34.0009, -118.3089
SUNNY MARKET,1600 W SLAUSON AVENUE #S31,LOS ANGELES,90047-1117,8,"(33.9891, -118.3045)",33.9891, -118.3045
G AND J MARKET,2045 W MARTIN LUTHER KING JR BLVD,LOS ANGELES,90062-1434,8,"(34.0108, -118.3164)",34.0108, -118.3164
MINI ENTERPRISE,9218 S VERMONT AVENUE,LOS ANGELES,90044-3322,8,"(33.9526, -118.2915)",33.9526, -118.2915
M N ADLONG MARKET,1550 W ADAMS BLVD,LOS ANGELES,90007-1513,8,"(34.0327, -118.296)",34.0327, -118.296
MI CARNAL 99 CENT PLUS,3566 S WESTERN AVENUE,LOS ANGELES,90018-3881,8,"(34.0232, -118.3088)",34.0232, -118.3088
PRINCE MARKET,6901 S FIGUEROA STREET,LOS ANGELES,90003-1715,8,"(33.9773, -118.2826)",33.9773, -118.2826
B & B MINI-MART,4140 CRENSHAW BLVD,LOS ANGELES,90008-2502,8,"(34.0092, -118.3351)",34.0092, -118.3351
INNER CITY MARKET,1435 W 39TH STREET,LOS ANGELES,90062-1168,8,"(34.0155, -118.3041)",34.0155, -118.3041
KING SERVICE,10420 AVALON BLVD,LOS ANGELES,90003-4923,8,"(33.9417, -118.2651)",33.9417, -118.2651
A.O. GARCIA | KINGS MARKET,8000 S WESTERN AVENUE,LOS ANGELES,90047-2718,8,"(33.9663, -118.309)",33.9663, -118.309
3-MINUTE MINI MARKET,8861 S BROADWAY,LOS ANGELES,90003-3634,8,"(33.9564, -118.2781)",33.9564, -118.2781
MEGA WEST SMOKE SHOP MINI MART,4027 S WESTERN AVENUE,LOS ANGELES,90062-1635,8,"(34.0103, -118.3091)",34.0103, -118.3091
QUEEN MARKET,9712 S SAN PEDRO STREET,LOS ANGELES,90003-4327,8,"(33.9479, -118.2692)",33.9479, -118.2692
GREENFIELD DAIRY #3,8303 S NORMANDIE AVENUE,LOS ANGELES,90044-2225,8,"(33.9634, -118.3006)",33.9634, -118.3006
99 CENT AND SMOKE SHOP,10122 S FIGUEROA STREET #G-H,LOS ANGELES,90003-4448,8,"(33.9441, -118.2826)",33.9441, -118.2826
TNN DISCOUNT MARKET,9333 S FIGUEROA STREET,LOS ANGELES,90003-3922,8,"(0.0, 0.0)",0.0, 0.0
DAN'S MINI MART,11100 S VERMONT AVENUE,LOS ANGELES,90044-1511,8,"(33.9343, -118.2912)",33.9343, -118.2912
JACOBS MINI MARKET,8405 S WESTERN AVENUE,LOS ANGELES,90047-3044,8,"(33.9625, -118.3092)",33.9625, -118.3092
FOOD 4 LESS #359,1748 W JEFFERSON BLVD,LOS ANGELES,90018-3910,8,"(34.0255, -118.3074)",34.0255, -118.3074
SIMON'S TOBACCO SHOP & MORE,8910  1/2 S BROADWAY,LOS ANGELES,90003-3629,8,"(33.9551, -118.2782)",33.9551, -118.2782
QUEEN'S SQUARE MARKET LIMITED LIABILITY COMPANY,1661 1/2 W MARTIN LUTHER KING JR BLVD,LOS ANGELES,90062-1609,8,"(34.011, -118.308)",34.011, -118.308
BRENDAXCHOCOLANDIA / NAVA'S MINI MARKET & PARTY SUPLIES,9420 S FIGUEROA STREET,LOS ANGELES,90003-3925,8,"(33.9503, -118.2823)",33.9503, -118.2823
LEES MARKET,10712 S HOOVER STREET,LOS ANGELES,90044-4349,8,"(33.9389, -118.2869)",33.9389, -118.2869
S & P MARKET,8400 S FIGUEROA STREET,LOS ANGELES,90003-2729,8,"(33.9631, -118.2823)",33.9631, -118.2823
VERMONT FOOD MARKET,8451 S VERMONT AVENUE,LOS ANGELES,90044-3448,8,"(33.9616, -118.2921)",33.9616, -118.2921
EXPO SUPER MARKET,1019 W MARTIN LUTHER KING JR BLVD,LOS ANGELES,90037-1816,8,"(34.011, -118.2932)",34.011, -118.2932
T & T MARKET,1462 W MARTIN LUTHER KING JR BLVD,LOS ANGELES,90062-1225,8,"(34.0105, -118.3025)",34.0105, -118.3025
LANY MARKET,6500 S HOOVER STREET,LOS ANGELES,90044-5352,8,"(33.9805, -118.2867)",33.9805, -118.2867
ONE STOP SMOKE SHOP,10956 S Main,Los Angeles,90061-2055,8,"(33.9364, -118.2738)",33.9364, -118.2738
SUPERIOR GROCERS,10211 AVALON BLVD,LOS ANGELES,90003-4819,8,"(33.9436, -118.2651)",33.9436, -118.2651
VALLE DE LUNA MINI MARKET,1513 W MARTIN LUTHER KING JR BLVD,LOS ANGELES,90062-1743,8,"(34.0109, -118.304)",34.0109, -118.304
JULIE'S MINI MARKET,4824 S WESTERN AVENUE,LOS ANGELES,90062-2324,8,"(33.9998, -118.3088)",33.9998, -118.3088
DON JUAN MINI MARKET,10825 S SAN PEDRO STREET,LOS ANGELES,90061-2525,8,"(33.938, -118.2695)",33.938, -118.2695
RALPHS GROCERY CO #294,2600 S VERMONT AVENUE UNIT #294,LOS ANGELES,90007-2222,8,"(34.0327, -118.2915)",34.0327, -118.2915
LOS TRES AMIGOS MEAT MARKET,9701   AVALON BLVD,LOS ANGELES,90003-4312,8,"(33.9482, -118.2655)",33.9482, -118.2655
ANGELES MINI MARKET,7512 S HOOVER STREET,LOS ANGELES,90044-6008,8,"(33.9712, -118.287)",33.9712, -118.287
M & J LIQUOR,7405 CRENSHAW BLVD UNIT #3,LOS ANGELES,90043-4931,8,"(33.9726, -118.3308)",33.9726, -118.3308
SNA GENERAL DISCOUNT & MARKET,9522  1/2 S FIGUEROA STREET,LOS ANGELES,90003-3927,8,"(33.9494, -118.2823)",33.9494, -118.2823
MANCHESTERSC MINI MARKET,2107 W MANCHESTER AVENUE SUITE #106,LOS ANGELES,90047-2953,8,"(33.9603, -118.3159)",33.9603, -118.3159
EMMANUEL MINI MARKET,5135 S WESTERN AVENUE,LOS ANGELES,90062-2333,8,"(33.9962, -118.3091)",33.9962, -118.3091
RAJO AFRICAN MARKET,5356   CRENSHAW BLVD,LOS ANGELES,90043-1810,8,"(33.9936, -118.3305)",33.9936, -118.3305
MARCE MINI MART,10032 S HOOVER STREET,LOS ANGELES,90044-4524,8,"(33.9447, -118.2866)",33.9447, -118.2866
LUCKY LIQUORS,4381 S WESTERN AVENUE,LOS ANGELES,90062-1651,8,"(34.0039, -118.309)",34.0039, -118.309
ROSARITO MARKET,10406 S FIGUEROA STREET,LOS ANGELES,90003-4424,8,"(33.9416, -118.2822)",33.9416, -118.2822
ANGELES MINI MART,8815 S MAIN STREET,LOS ANGELES,90003-3425,8,"(33.9567, -118.2742)",33.9567, -118.2742
SMART FINAL #337,8137 S VERMONT AVENUE #337,LOS ANGELES,90044-3535,8,"(33.9648, -118.2918)",33.9648, -118.2918
E AND D DISCOUNT MARKET,1513 W MARTIN LUTHER KING JR BLVD,LOS ANGELES,90062-1743,8,"(34.0108, -118.3039)",34.0108, -118.3039
MINI MARKET LOS VANEGAS,1729 W SLAUSON AVENUE,LOS ANGELES,90047-1120,8,"(33.9894, -118.308)",33.9894, -118.308
FLORENCE MARKET & SMOKE SHOP,1614 W FLORENCE AVENUE,LOS ANGELES,90047-2217,8,"(33.9743, -118.3053)",33.9743, -118.3053
MODERN LIQUOR & MARKET,3894 S WESTERN AVENUE,LOS ANGELES,90062-1104,8,"(34.0147, -118.3088)",34.0147, -118.3088
PEREZ MINI MARKET,8918 S BROADWAY,LOS ANGELES,90003-3629,8,"(33.955, -118.2779)",33.955, -118.2779
YOUNG'S MARKET AND PARTY SUPPLIES,7522 S HOOVER STREET,LOS ANGELES,90044-6008,8,"(33.971, -118.2869)",33.971, -118.2869
DIAZ MINI MART,10818 S VERMONT AVENUE,LOS ANGELES,90044-3014,8,"(33.938, -118.2915)",33.938, -118.2915
FAMILY MARKET,720 W IMPERIAL HIGHWAY,LOS ANGELES,90044-4109,8,"(33.9306, -118.2878)",33.9306, -118.2878
WOODS & GOODS MINI MART,1838 W JEFFERSON BLVD,LOS ANGELES,90018-3433,8,"(34.0253, -118.3101)",34.0253, -118.3101
FIRST ONE,729 W 74TH STREET,LOS ANGELES,90044-6165,8,"(33.9728, -118.2862)",33.9728, -118.2862
BUBBAS MARKET,4700 S VERMONT AVENUE,LOS ANGELES,90037-2928,9,"(0.0, 0.0)",0.0, 0.0
ROSA'S MARKET & ENVIOS DE DINERO,4114 S HOOVER STREET,LOS ANGELES,90037-,9,"(0.0, 0.0)",0.0, 0.0
NU WAY MARKET,6101   HOLMES AVENUE,LOS ANGELES,90001-1819,9,"(33.9846, -118.2416)",33.9846, -118.2416
FLORENCE MARKET,1529 E FLORENCE AVENUE,LOS ANGELES,90001-2535,9,"(33.975, -118.2468)",33.975, -118.2468
JONNYS MARKET,2910 S SAN PEDRO STREET,LOS ANGELES,90011-,9,"(0.0, 0.0)",0.0, 0.0
THE REAL SNACK STORE,5526 AVALON BLVD,LOS ANGELES,90011-5116,9,"(33.9922, -118.2651)",33.9922, -118.2651
VELAZQUEZ MINI MARKET,8504 S BROADWAY,LOS ANGELES,90003-3335,9,"(33.9614, -118.2782)",33.9614, -118.2782
GARCIA'S MINI MARKET,3803 S MAIN STREET,LOS ANGELES,90037-1417,9,"(34.0129, -118.274)",34.0129, -118.274
CENTRAL LIQUOR,7727 S CENTRAL AVENUE,LOS ANGELES,90001-2941,9,"(33.9689, -118.2565)",33.9689, -118.2565
HAELY'S WATER STORE MINI MARKET,1063 E 42ND STREET    #G,LOS ANGELES,90011-3138,9,"(34.0076, -118.2564)",34.0076, -118.2564
JK MARKET,6333 S BROADWAY,LOS ANGELES,90003-1431,9,"(33.9817, -118.2784)",33.9817, -118.2784
EL PRINCIPIO MARKET #2,2301 MAPLE AVENUE,LOS ANGELES,90011-1407,9,"(34.0258, -118.2639)",34.0258, -118.2639
SABB MARKET,8922 S CENTRAL AVENUE,LOS ANGELES,90002-1738,9,"(33.9554, -118.2564)",33.9554, -118.2564
LUPITAS 99 & UP MINI MARKET,8319 S MAIN STREET   UNIT #104,LOS ANGELES,90003-2917,9,"(33.9635, -118.2743)",33.9635, -118.2743
TIENDA  SAN RAFAEL,5121 S VERMONT AVENUE,LOS ANGELES,90037-3515,9,"(33.9963, -118.2915)",33.9963, -118.2915
SUPERIOR GROCERS,5824 S VERMONT AVENUE,LOS ANGELES,90044-3712,9,"(33.9891, -118.2914)",33.9891, -118.2914
ARTURO'S DISCOUNT,2808 S CENTRAL AVENUE,LOS ANGELES,90011-2037,9,"(34.0165, -118.2558)",34.0165, -118.2558
MOTHERS AND BABIES NUTRITION,4269 S VERMONT AVENUE,LOS ANGELES,90037-2463,9,"(34.0059, -118.2915)",34.0059, -118.2915
TRADER JOE'S #250,3131 S HOOVER STREET   SUITE #1920,LOS ANGELES,90089-8500,9,"(34.0266, -118.284)",34.0266, -118.284
OROZCO'S CAKE BAKERY,2206 S CENTRAL AVENUE,LOS ANGELES,90011-1239,9,"(34.0214, -118.2531)",34.0214, -118.2531
J & R MARKET,4077   AVALON BLVD,LOS ANGELES,90011-5644,9,"(34.0094, -118.2656)",34.0094, -118.2656
MONTOYA'S MINI MARKET,6726 S SAN PEDRO STREET,LOS ANGELES,90003-1940,9,"(33.9785, -118.2695)",33.9785, -118.2695
LA TIA MARQUET,147 W WASHINGTON BLVD,LOS ANGELES,90015-3544,9,"(34.0316, -118.2658)",34.0316, -118.2658
CASTILLOS MARKET,4828 S FIGUEROA STREET,LOS ANGELES,90037-3342,9,"(33.9986, -118.2825)",33.9986, -118.2825
GARCIA'S MARKET,1177 W VERNON AVENUE,LOS ANGELES,90037-2444,9,"(34.0036, -118.2953)",34.0036, -118.2953
GENESIS MARKET,601 E MANCHESTER AVENUE,LOS ANGELES,90001-3630,9,"(33.9603, -118.265)",33.9603, -118.265
NUMERO UNO MARKET,4373 S VERMONT AVENUE,LOS ANGELES,90037-2411,9,"(34.004, -118.2915)",34.004, -118.2915
B&B MARKET,787 E 54TH STREET,LOS ANGELES,90011-4635,9,"(33.9935, -118.261)",33.9935, -118.261
MAIN ST MARKET,3327 S MAIN STREET,LOS ANGELES,90007-4127,9,"(34.0191, -118.2725)",34.0191, -118.2725
YANILETH MINI STORE,7518 S MAIN STREET,LOS ANGELES,90003-2128,9,"(33.9714, -118.2739)",33.9714, -118.2739
QUICKY'S MINIMART,984 W VERNON AVENUE,LOS ANGELES,90037-3039,9,"(34.0036, -118.2911)",34.0036, -118.2911
DAILY FOOD MARKET,2530 MAPLE AVENUE,LOS ANGELES,90011-1430,9,"(34.024, -118.265)",34.024, -118.265
MARIA ARANDA MINI MARKET,4703 COMPTON AVENUE,LOS ANGELES,90011-4307,9,"(34.0009, -118.2477)",34.0009, -118.2477
COMPTON MARKET & LIQUOR,4187 COMPTON AVENUE,LOS ANGELES,90011-3331,9,"(34.0067, -118.2473)",34.0067, -118.2473
STOP SHOP MARKET,4925   HOOPER AVENUE,LOS ANGELES,90011-4227,9,"(33.9983, -118.2522)",33.9983, -118.2522
UNIVERSAL GROCERY STORE,7511 S CENTRAL AVENUE,LOS ANGELES,90001-2426,9,"(33.9717, -118.2567)",33.9717, -118.2567
MINI MARKET & VARIEDADES LOS TRES HERMANOS,4114 S HOOVER STREET,LOS ANGELES,90037-1901,9,"(34.0091, -118.2872)",34.0091, -118.2872
J.J MARKET,2801 S HILL STREET,LOS ANGELES,90007-3327,9,"(34.024, -118.2723)",34.024, -118.2723
LOS 3 MIGUELES MARKET,4151 S CENTRAL AVENUE,LOS ANGELES,90011-3153,9,"(34.0083, -118.2565)",34.0083, -118.2565
Y & Y MARKET | Y AND Y MARKET,373 W 39TH STREET,LOS ANGELES,90037-1428,9,"(34.0133, -118.2796)",34.0133, -118.2796
GARCIA MINI MARKET #2,4050 BROADWAY PLACE,LOS ANGELES,90037-1010,9,"(34.01, -118.2779)",34.01, -118.2779
C & S MINI MART,676 W SLAUSON AVENUE,LOS ANGELES,90044-6351,9,"(33.9889, -118.2858)",33.9889, -118.2858
SUBWAY,5864 S VERMONT AVENUE,LOS ANGELES,90044-3712,9,"(33.988, -118.2914)",33.988, -118.2914
QUETAZAL PRODUCE & MINI MARKET,4101 S BROADWAY,LOS ANGELES,90037-2220,9,"(34.009, -118.2783)",34.009, -118.2783
VARETYS AMADAS,6121 S VERMONT AVENUE,LOS ANGELES,90044-3717,9,"(33.9836, -118.2914)",33.9836, -118.2914
DAMUS MARKET,5257 COMPTON AVENUE,LOS ANGELES,90011-4915,9,"(33.9952, -118.2477)",33.9952, -118.2477
RODRIGUEZ MINI MARKET 99 CENTS & UP,8252 S MAIN STREET,LOS ANGELES,90003-2932,9,"(33.9645, -118.2738)",33.9645, -118.2738
THE BLUE STORE MARKET,4767 S BROADWAY,LOS ANGELES,90037-3253,9,"(33.9997, -118.2783)",33.9997, -118.2783
M CARNAL MARKET #2,128 E MARTIN LUTHER KING JR BLVD,LOS ANGELES,90011-2652,9,"(34.0111, -118.2728)",34.0111, -118.2728
NEW VERNON RANCH MARKET,1713 E VERNON AVENUE   SUITE #107,LOS ANGELES,90058-1729,9,"(34.0042, -118.2423)",34.0042, -118.2423
ROY S MARKET,6127 S MAIN STREET,LOS ANGELES,90003-1237,9,"(33.984, -118.2739)",33.984, -118.2739
BELLA GENERAL SUPPLY,3004 MAPLE AVENUE,LOS ANGELES,90011-1924,9,"(34.02, -118.2673)",34.02, -118.2673
MERCADITO LOS HERNANDEZ,4614 S BROADWAY,LOS ANGELES,90037-2730,9,"(34.0018, -118.2783)",34.0018, -118.2783
MINI MARKET LUNA,720 E FLORENCE AVENUE,LOS ANGELES,90001-2322,9,"(33.9745, -118.262)",33.9745, -118.262
MARIAA MINI STORE,5440 S CENTRAL AVENUE   UNIT #A,LOS ANGELES,90011-6027,9,"(33.9933, -118.2562)",33.9933, -118.2562
J/M MARKET,6103 S HOOVER STREET,LOS ANGELES,90044-5417,9,"(33.9846, -118.287)",33.9846, -118.287
DOMINICS 1,2721 S CENTRAL AVENUE,LOS ANGELES,90011-5527,9,"(34.0172, -118.2555)",34.0172, -118.2555
B J MARKET,9404 S SAN PEDRO STREET,LOS ANGELES,90003-4321,9,"(0.0, 0.0)",0.0, 0.0
LAS CHIQUITAS,5146 S MAIN STREET,LOS ANGELES,90037-3840,9,"(33.9955, -118.2739)",33.9955, -118.2739
XOCHILT MARKET,4201 S BROADWAY,LOS ANGELES,90037-2208,9,"(34.0073, -118.2783)",34.0073, -118.2783
7-ELEVEN STORE 34535A,8600 S CENTRAL AVENUE,LOS ANGELES,90002-1124,9,"(33.9601, -118.2563)",33.9601, -118.2563
RODRIGUEZ MARKET,6014 S CENTRAL AVENUE,LOS ANGELES,90001-1131,9,"(33.9846, -118.2564)",33.9846, -118.2564
LUPITA'S MARKET | LUPITAS MARKET,5875 S BROADWAY,LOS ANGELES,90003-1166,9,"(33.9874, -118.2782)",33.9874, -118.2782
ALVIN'S MINI MARKET,5117   AVALON BLVD,LOS ANGELES,90011-4525,9,"(33.9962, -118.2655)",33.9962, -118.2655
SOFI MINI MARKET,4074 AVALON BLVD,LOS ANGELES,90011-5645,9,"(34.0097, -118.2652)",34.0097, -118.2652
GUSIE'S MARKET & 99 CENT,8424 S SAN PEDRO STREET,LOS ANGELES,90003-3012,9,"(33.9622, -118.2694)",33.9622, -118.2694
NORTHGATE MARKET # 38,944 E SLAUSON AVENUE,LOS ANGELES,90011-5240,9,"(33.9893, -118.2586)",33.9893, -118.2586
NUMERO UNO MARKET,310 E MANCHESTER AVENUE,LOS ANGELES,90003-3522,9,"(33.96, -118.2689)",33.96, -118.2689
SUPERIOR GROCERS,2000 S CENTRAL AVENUE,LOS ANGELES,90011-1235,9,"(34.0232, -118.2516)",34.0232, -118.2516
EL BAJIO MARKET,4501 S MAIN STREET,LOS ANGELES,90037-2733,9,"(34.0028, -118.2739)",34.0028, -118.2739
JOSE A. MERINO ORTIZ,5112 S CENTRAL AVENUE,LOS ANGELES,90011-4714,9,"(33.9966, -118.2561)",33.9966, -118.2561
PEREZ  MINI MARKET #2,4083 S MAIN STREET,LOS ANGELES,90037-1035,9,"(34.0091, -118.2739)",34.0091, -118.2739
SAN MIGUEL MARKET 2,4189 S FIGUEROA STREET,LOS ANGELES,90037-2040,9,"(34.0072, -118.2829)",34.0072, -118.2829
B & J COMMUNITY MINI MARKET,8451 AVALON BLVD,LOS ANGELES,90003-3141,9,"(33.9619, -118.2651)",33.9619, -118.2651
WEST LIQUOR,701 E MANCHESTER AVENUE,LOS ANGELES,90001-3632,9,"(33.9602, -118.2629)",33.9602, -118.2629
GISELLE MINI MARKET,2104   MAPLE AVENUE,LOS ANGELES,90011-1041,9,"(34.0274, -118.2628)",34.0274, -118.2628
FLOR MINI MARKET,1400 E 41ST STREET,LOS ANGELES,90011-3304,9,"(34.0087, -118.2493)",34.0087, -118.2493
STOP & SHOP MARKET,4925 HOOPER AVENUE,LOS ANGELES,90011-4227,9,"(33.998, -118.2521)",33.998, -118.2521
MARY MINI MARKET,5025 S BROADWAY,LOS ANGELES,90037-3213,9,"(33.9972, -118.2783)",33.9972, -118.2783
REYES MINI MARKET,3101 S SAN PEDRO STREET,LOS ANGELES,90011-2010,9,"(34.0176, -118.2637)",34.0176, -118.2637
CHALLIO'S MEAT MARKET & DELI,4400 AVALON BLVD,LOS ANGELES,90011-5627,9,"(34.0038, -118.2652)",34.0038, -118.2652
RUIZ MINI MARKET,4824 1/2 AVALON BLVD,LOS ANGELES,90011-4046,9,"(33.9989, -118.2652)",33.9989, -118.2652
ANA'S MINI MARKET,5253 S BROADWAY,LOS ANGELES,90037-3848,9,"(33.9947, -118.2783)",33.9947, -118.2783
CENTRAL MINI MARKET,7325 S CENTRAL AVENUE,LOS ANGELES,90001-2422,9,"(33.9736, -118.2564)",33.9736, -118.2564
HILLARY MINI MARKET,4072 S SAN PEDRO STREET,LOS ANGELES,90011-2943,9,"(34.0097, -118.2652)",34.0097, -118.2652
LESLY MINI MARKET & 99 CENT,7011 S BROADWAY,LOS ANGELES,90003-1848,9,"(33.9763, -118.2783)",33.9763, -118.2783
BEST MARKET,4275 S HOOVER STREET,LOS ANGELES,90037-2536,9,"(34.0057, -118.2871)",34.0057, -118.2871
IRIS SHOP,4408 S MAIN STREET,LOS ANGELES,90037-2732,9,"(34.0037, -118.2739)",34.0037, -118.2739
MI CHAPITA MINI MARKET,5724 S BROADWAY,LOS ANGELES,90037-4132,9,"(33.9903, -118.2783)",33.9903, -118.2783
H. P. GROCERY MARKET,7631 S MAIN STREET,LOS ANGELES,90003-2513,9,"(33.9701, -118.2739)",33.9701, -118.2739
LOS 4 HERMANOS #2 MARKET,416 E 36TH STREET,LOS ANGELES,90011-2329,9,"(34.0148, -118.2686)",34.0148, -118.2686
ANGELICA'S MARKET,8902 AVALON BLVD,LOS ANGELES,90003-3810,9,"(33.9555, -118.2651)",33.9555, -118.2651
DISCOUNT MINI MARKET,4117 S BROADWAY,LOS ANGELES,90037-2220,9,"(34.0084, -118.2783)",34.0084, -118.2783
FELIPE MARKET,4429 AVALON BLVD,LOS ANGELES,90011-5626,9,"(34.003, -118.2652)",34.003, -118.2652
EL RINCONCITO NO 1 CARNICERIA,2800 MAPLE AVENUE,LOS ANGELES,90011-1436,9,"(34.0218, -118.2664)",34.0218, -118.2664
MARCES MINI MARKET,4162 AVALON BLVD,LOS ANGELES,90011-5643,9,"(34.008, -118.2652)",34.008, -118.2652
ANITA'S MARKET,333 1/2 E FLORENCE AVENUE,LOS ANGELES,90003-2231,9,"(33.9747, -118.2688)",33.9747, -118.2688
AVALON GARAGE,9200 AVALON BLVD,LOS ANGELES,90003-3835,9,"(33.9528, -118.2651)",33.9528, -118.2651
SANTA ANA MINI MARKET,450 E VERNON AVENUE,LOS ANGELES,90011-3440,9,"(34.0038, -118.2679)",34.0038, -118.2679
DAVID'S MINI MARKET,5430 COMPTON AVENUE,LOS ANGELES,90011-4940,9,"(33.9933, -118.2477)",33.9933, -118.2477
YASMIN MARKET & 99CENT,4425 S NORMANDIE AVENUE,LOS ANGELES,90037-2307,9,"(34.0031, -118.3001)",34.0031, -118.3001
NUMERO UNO MARKET,2214 S SAN PEDRO STREET,LOS ANGELES,90011-1128,9,"(34.0247, -118.2592)",34.0247, -118.2592
VERNON & HOOPER MARKET,1301 E VERNON AVENUE,LOS ANGELES,90011-3722,9,"(34.0038, -118.2521)",34.0038, -118.2521
JK MARKET,6333 S BROADWAY,LOS ANGELES,90003-1431,9,"(33.9817, -118.2782)",33.9817, -118.2782
RAMIREZ MARKET,856 E 51ST STREET,LOS ANGELES,90011-4114,9,"(33.9965, -118.2601)",33.9965, -118.2601
SUPER DOLLAR #6,2220 S CENTRAL AVENUE,LOS ANGELES,90011-1239,9,"(34.0211, -118.2535)",34.0211, -118.2535
H V M MARKET | HVM MARKET,801 W VERNON AVENUE,LOS ANGELES,90037-3023,9,"(34.0037, -118.2871)",34.0037, -118.2871
MERCADO GARIBALDI,4212 S CENTRAL AVENUE,LOS ANGELES,90011-3002,9,"(34.0073, -118.2565)",34.0073, -118.2565
CRYSTAL WATER & ICE,8319 S MAIN STREET   SUITE #106,LOS ANGELES,90003-2917,9,"(33.9635, -118.2743)",33.9635, -118.2743
TEITAS MARKET,4813 S MAIN STREET,LOS ANGELES,90037-3218,9,"(33.999, -118.2739)",33.999, -118.2739
EL PRINSIPIO MARKET,2630 MAPLE AVENUE,LOS ANGELES,90011-1432,9,"(34.0231, -118.2656)",34.0231, -118.2656
MANRIQUEZ MINI MARKET,7614 S SAN PEDRO STREET,LOS ANGELES,90003-2349,9,"(33.971, -118.2695)",33.971, -118.2695
NEW YORK MARKET & DELI,9300 S SAN PEDRO STREET,LOS ANGELES,90003-3845,9,"(33.9519, -118.2695)",33.9519, -118.2695
PANADERIA GUATEMALA,4701 S NORMANDIE AVENUE,LOS ANGELES,90037-2854,9,"(34.001, -118.3001)",34.001, -118.3001
CHEVRON STATIONS INC #1864,4000 S FIGUEROA STREET,LOS ANGELES,90037-2002,9,"(34.0111, -118.2827)",34.0111, -118.2827
CASA LATINO XPRESS,5019 S BROADWAY,LOS ANGELES,90037-3213,9,"(33.9968, -118.2787)",33.9968, -118.2787
LA MAYORDOMIA,5892 S BROADWAY,LOS ANGELES,90003-1163,9,"(33.9871, -118.2779)",33.9871, -118.2779
ODY MARKET,6026 S SAN PEDRO STREET,LOS ANGELES,90003-1336,9,"(33.9849, -118.2695)",33.9849, -118.2695
CORONA MARKET,2800 MAPLE AVENUE,LOS ANGELES,90011-1436,9,"(34.0218, -118.2664)",34.0218, -118.2664
TEDDY'S MARKET,5511 S VERMONT AVENUE,LOS ANGELES,90037-3533,9,"(33.9922, -118.2914)",33.9922, -118.2914
FIGUEROA MINIMARKET,5845 S FIGUEROA STREET,LOS ANGELES,90003-1061,9,"(33.9886, -118.2826)",33.9886, -118.2826
LUNA'S MARKET #2,4433 S ALAMEDA STREET   #A40,LOS ANGELES,90058-2008,9,"(34.0031, -118.2401)",34.0031, -118.2401
ROYALTY MARKET,6200 S SAN PEDRO STREET,LOS ANGELES,90003-1637,9,"(33.9833, -118.2695)",33.9833, -118.2695
MAYAN MARKET,6129 S NORMANDIE AVENUE,LOS ANGELES,90044-2723,9,"(33.9838, -118.3002)",33.9838, -118.3002
ANTHONY'S MINI MARKET,5600 S SAN PEDRO STREET,LOS ANGELES,90011-5136,9,"(33.9915, -118.2651)",33.9915, -118.2651
PACHECO MINI MARKET,8412 S MAIN STREET,LOS ANGELES,90003-2902,9,"(33.9623, -118.2736)",33.9623, -118.2736
KING PAYLESS MARKET,5911 S VERMONT AVENUE,LOS ANGELES,90044-3713,9,"(33.9872, -118.2916)",33.9872, -118.2916
MOISES MINI MARKET,1401 E VERNON AVENUE,LOS ANGELES,90011-3828,9,"(34.0038, -118.2499)",34.0038, -118.2499
UNO PRODUCE MARKET,4100 S BROADWAY,LOS ANGELES,90037-2221,9,"(34.009, -118.2783)",34.009, -118.2783
LA MEXICANA MARKET,4800 COMPTON AVENUE,LOS ANGELES,90011-4436,9,"(34.0001, -118.2477)",34.0001, -118.2477
PRADOS MARKET,4523 AVALON BLVD,LOS ANGELES,90011-5628,9,"(34.002, -118.2652)",34.002, -118.2652
LEYVA'S MINI MARKET,1358 W 54TH STREET,LOS ANGELES,90037-3441,9,"(33.9932, -118.3)",33.9932, -118.3
NUMERO UNO MARKET,4710 S BROADWAY,LOS ANGELES,90037-3245,9,"(34.0007, -118.2783)",34.0007, -118.2783
BEE'S STORE,7316 S SAN PEDRO STREET,LOS ANGELES,90003-2240,9,"(33.9737, -118.2695)",33.9737, -118.2695
RED TAG DISCOUNT WAREHOUSE,6401 S MAIN STREET,LOS ANGELES,90003-1525,9,"(33.9814, -118.274)",33.9814, -118.274
AMERICA'S MEAT MARKET,2500 S CENTRAL AVENUE,LOS ANGELES,90011-1635,9,"(34.0196, -118.2543)",34.0196, -118.2543
55TH STREET MARKET,5428   HOOPER AVENUE,LOS ANGELES,90011-4811,9,"(33.9934, -118.252)",33.9934, -118.252
VICTORIA'S MINI MARKET,6021 S VERMONT AVENUE,LOS ANGELES,90044-3715,9,"(33.9852, -118.2914)",33.9852, -118.2914
51ST STREET MARKET,5026   AVALON BLVD,LOS ANGELES,90011-4005,9,"(33.9968, -118.2648)",33.9968, -118.2648
7-ELEVEN STORE 37237A,3994 S FIGUEROA STREET,LOS ANGELES,90037-1222,9,"(34.0114, -118.2824)",34.0114, -118.2824
LA GUADALUPANA,4715   AVALON BLVD,LOS ANGELES,90011-5405,9,"(34.0002, -118.2656)",34.0002, -118.2656
GARCIAS MINI MARKET,450 E VERNON AVENUE,LOS ANGELES,90011-3440,9,"(34.0037, -118.2678)",34.0037, -118.2678
TONY'S  MARKET,4301 S BROADWAY,LOS ANGELES,90037-2709,9,"(34.0056, -118.2783)",34.0056, -118.2783
CASTANOS MINI MARKET,5979 S BROADWAY,LOS ANGELES,90003-1144,9,"(33.9854, -118.2783)",33.9854, -118.2783
ZOE MINI MARKET,6606 S BROADWAY     FRONT,LOS ANGELES,90003-1843,9,"(33.9797, -118.2781)",33.9797, -118.2781
LA MEXICANA,4800   COMPTON AVENUE,LOS ANGELES,90011-4436,9,"(34.0, -118.2475)",34.0, -118.2475
7-ELEVEN STORE 24171C,2512 S FIGUEROA STREET,LOS ANGELES,90007-2549,9,"(34.0289, -118.2755)",34.0289, -118.2755
S MARKET,5420 S VERMONT AVENUE   #A,LOS ANGELES,90037-3532,9,"(33.993, -118.2914)",33.993, -118.2914
NANCY FLOWER MINI MARKET,5403 S BROADWAY,LOS ANGELES,90037-4125,9,"(33.9932, -118.2783)",33.9932, -118.2783
ZACAPA MINI MARKET,4810 HOOPER AVENUE,LOS ANGELES,90011-4226,9,"(33.9998, -118.2521)",33.9998, -118.2521
JR MARKET DISCOUNT,8322   AVALON BLVD,LOS ANGELES,90003-3110,9,"(33.9631, -118.2648)",33.9631, -118.2648
DELILAHS MINI MARKET,406 E 40TH PLACE,LOS ANGELES,90011-5641,9,"(34.0101, -118.2683)",34.0101, -118.2683
THE SERRANOS MINI MARKET,6104 S VERMONT AVENUE,LOS ANGELES,90044-3718,9,"(33.9844, -118.2912)",33.9844, -118.2912
ONE DOLLAR,4060 S BROADWAY,LOS ANGELES,90037-1031,9,"(34.0095, -118.2783)",34.0095, -118.2783
CHIVAS FARM MARKET,7902 S BROADWAY,LOS ANGELES,90003-2438,9,"(33.9677, -118.2779)",33.9677, -118.2779
EL MILAGRO MINI MARKET,6607 S SAN PEDRO STREET,LOS ANGELES,90003-1937,9,"(33.9796, -118.2695)",33.9796, -118.2695
GARCIA MINI MARKET,4806  1/2 S CENTRAL AVENUE,LOS ANGELES,90011-5706,9,"(33.9996, -118.2564)",33.9996, -118.2564
NUMERO UNO MARKET,701 E JERFFERSON BLVD,LOS ANGELES,90011-,9,"(0.0, 0.0)",0.0, 0.0
ANGELICA'S MARKET,243 E 53RD STREET,LOS ANGELES,90011-4519,9,"(33.9945, -118.2703)",33.9945, -118.2703
ROSITAS MINI MARKET,1320 E 41ST STREET,LOS ANGELES,90011-3302,9,"(34.0089, -118.2513)",34.0089, -118.2513
LA CIG & 99,5513 S CENTRAL AVENUE,LOS ANGELES,90011-4729,9,"(33.9922, -118.2568)",33.9922, -118.2568
ENMANUEL MINI MARKET,4433 S ALAMEDA STREET   BUILDING #B19,LOS ANGELES,90058-2008,9,"(34.0031, -118.2401)",34.0031, -118.2401
SAM'S MARKET,4103 S HOOVER STREET,LOS ANGELES,90037-1939,9,"(34.0089, -118.2874)",34.0089, -118.2874
L A MARKET,246 E MARTIN LUTHER KING JR BLVD,LOS ANGELES,90011-2651,9,"(34.0111, -118.27)",34.0111, -118.27
Q & M STORE,853 E 91ST STREET,LOS ANGELES,90002-1625,9,"(33.9541, -118.259)",33.9541, -118.259
LARIOS MINI MARKET,7518 S MAIN STREET,LOS ANGELES,90003-2128,9,"(33.9716, -118.2736)",33.9716, -118.2736
OSCARS MINI MARKET 99,4314   ASCOT AVENUE,LOS ANGELES,90011-3808,9,"(34.0054, -118.2496)",34.0054, -118.2496
P & J  MARKET,1479 E 22ND STREET,LOS ANGELES,90011-1305,9,"(34.0192, -118.248)",34.0192, -118.248
JIM'S MARKET,4221 S MAIN STREET,LOS ANGELES,90037-2210,9,"(34.007, -118.2741)",34.007, -118.2741
SAN PEDRO AS MARKET,2610 S SAN PEDRO STREET,LOS ANGELES,90011-1522,9,"(34.0211, -118.2615)",34.0211, -118.2615
5 HERMANOS MARKET,507 W 62ND STREET,LOS ANGELES,90044-5425,9,"(33.9833, -118.2828)",33.9833, -118.2828
C & C LIQUOR,4606 S BROADWAY,LOS ANGELES,90037-2730,9,"(34.0019, -118.2783)",34.0019, -118.2783
L & M MINI MARKET,5111 S CENTRAL AVENUE,LOS ANGELES,90011-4713,9,"(33.9962, -118.2568)",33.9962, -118.2568
ONE STOP LIQUOR WHOLEMART,5028 S NORMANDIE AVENUE,LOS ANGELES,90037-2830,9,"(33.9975, -118.3001)",33.9975, -118.3001
DIANA'S MINI MARKET,5610 S MAIN STREET,LOS ANGELES,90037-4140,9,"(33.9912, -118.2736)",33.9912, -118.2736
SAN JUDAS COLIMA STORE,4116 S HOOVER STREET,LOS ANGELES,90037-1901,9,"(34.0091, -118.2871)",34.0091, -118.2871
GARCIA'S MINI MARKET #2,2721 S CENTRAL AVENUE,LOS ANGELES,90011-5527,9,"(34.0173, -118.2557)",34.0173, -118.2557
HILL STREET FOOD MARKET,206 W ADAMS BLVD,LOS ANGELES,90007-2653,9,"(34.0258, -118.2713)",34.0258, -118.2713
DAMARIS MINI MARKET,5909 S BROADWAY,LOS ANGELES,90003-1121,9,"(33.9866, -118.2786)",33.9866, -118.2786
FOOD 4 LESS 344,5318 S MAIN STREET,LOS ANGELES,90037-3811,9,"(33.994, -118.2739)",33.994, -118.2739
IZABAL MEAT MARKET,5100 S MAIN STREET,LOS ANGELES,90037-3840,9,"(33.9964, -118.2739)",33.9964, -118.2739
MINI 99 JULIET,4728 S NORMANDIE AVENUE,LOS ANGELES,90037-2855,9,"(34.0, -118.3001)",34.0, -118.3001
LA MILAGROSA MINI MARKET,5638 S BROADWAY,LOS ANGELES,90037-4130,9,"(33.9911, -118.2782)",33.9911, -118.2782
EL CHARRITO MARKET,501 E 23RD STREET,LOS ANGELES,90011-1022,9,"(34.0253, -118.2627)",34.0253, -118.2627
SONIA'S MARKET,5043 S NORMANDIE AVENUE,LOS ANGELES,90037-2829,9,"(33.9975, -118.3001)",33.9975, -118.3001
ZELIAS MINI MARKET,5117 AVALON BLVD,LOS ANGELES,90011-4525,9,"(33.9961, -118.2651)",33.9961, -118.2651
HOOPER MARKET,2339   HOOPER AVENUE,LOS ANGELES,90011-1713,9,"(34.0177, -118.2493)",34.0177, -118.2493
ADAIR MARKET,3600   ADAIR STREET,LOS ANGELES,90011-2609,9,"(34.0139, -118.267)",34.0139, -118.267
DANI MINI MARKET,5024 S VERMONT AVENUE,LOS ANGELES,90037-2908,9,"(33.9971, -118.2911)",33.9971, -118.2911
SUSY'S PRODUCE,4433 S ALAMEDA STREET   SPACE #AA1,LOS ANGELES,90058-2008,9,"(34.0031, -118.2401)",34.0031, -118.2401
EL CHIVISTA MEAT MARKET,5120   AVALON BLVD,LOS ANGELES,90011-4526,9,"(33.9961, -118.265)",33.9961, -118.265
RAQUELITO'S MINI MARKET,7404 S CENTRAL AVENUE,LOS ANGELES,90001-2425,9,"(33.9729, -118.2561)",33.9729, -118.2561
K S MARKET,8004   AVALON BLVD,LOS ANGELES,90003-2613,9,"(33.9662, -118.2648)",33.9662, -118.2648
7-ELEVEN #39560,5401 S FIGUEROA STREET   UNIT #8-9,LOS ANGELES,90037-3760,9,"(33.9931, -118.2831)",33.9931, -118.2831
SMART & FINAL #456,3607 S VERMONT AVENUE,LOS ANGELES,90007-3945,9,"(34.0229, -118.2915)",34.0229, -118.2915
QUICK E MART,244 E 37TH STREET,LOS ANGELES,90011-2671,9,"(34.0148, -118.2716)",34.0148, -118.2716
BERNARDO'S MINI MARKET,4819 S VERMONT AVENUE   UNIT #A,LOS ANGELES,90037-2929,9,"(33.999, -118.2919)",33.999, -118.2919
COCO'S 99 CTS MINI MARKET,5112 S CENTRAL AVENUE,LOS ANGELES,90011-4714,9,"(33.9966, -118.2561)",33.9966, -118.2561
MARTHA'S MINI MARKET,4122 HOOPER AVENUE,LOS ANGELES,90011-3222,9,"(34.0086, -118.2521)",34.0086, -118.2521
ANA'S MARKET,6601 S MAIN STREET,LOS ANGELES,90003-1529,9,"(33.9795, -118.2742)",33.9795, -118.2742
BIG O LIQUOR,4626 S VERMONT AVENUE,LOS ANGELES,90037-2926,9,"(34.0014, -118.2915)",34.0014, -118.2915
REGGIES LIQUOR & JR MARKET,2700 HOOPER AVENUE,LOS ANGELES,90011-2102,9,"(34.0157, -118.2508)",34.0157, -118.2508
LAS ALONDRAS MINI MART,4122 S CENTRAL AVENUE,LOS ANGELES,90011-3154,9,"(34.0089, -118.2563)",34.0089, -118.2563
EAST VERNON MARKET,1301 E VERNON AVENUE,LOS ANGELES,90011-3722,9,"(34.0041, -118.252)",34.0041, -118.252
DAILY FOOD MARKET,2530   MAPLE AVENUE,LOS ANGELES,90011-1430,9,"(34.0239, -118.2649)",34.0239, -118.2649
TIENDA ALFA Y OMEGA,4172 S VERMONT AVENUE,LOS ANGELES,90037-1935,9,"(34.0077, -118.2912)",34.0077, -118.2912
HEALTH NUTRITION,4158 S CENTRAL AVENUE,LOS ANGELES,90011-3154,9,"(34.008, -118.2564)",34.008, -118.2564
LA FAMILIA MARKET,7915 S CENTRAL AVENUE,LOS ANGELES,90001-3317,9,"(33.9673, -118.2564)",33.9673, -118.2564
AVILES SUPER MARKET,4730 S NORMANDIE AVENUE,LOS ANGELES,90037-2855,9,"(33.9999, -118.3)",33.9999, -118.3
99 & UP,852 E MANCHESTER AVENUE,LOS ANGELES,90001-3635,9,"(33.9599, -118.2589)",33.9599, -118.2589
LEONS MINI MARKET,7111 S MAIN STREET,LOS ANGELES,90003-2131,9,"(33.9754, -118.2739)",33.9754, -118.2739
FADY ONE STOP AUTO,1460 S LA CIENEGA BLVD,LOS ANGELES,90035-3715,10,"(34.0512, -118.3758)",34.0512, -118.3758
RALPHS GROCERY #283,5080 RODEO ROAD,LOS ANGELES,90016-4706,10,"(34.0215, -118.3551)",34.0215, -118.3551
RAY AND ROY'S MARKET,2800   4TH AVENUE,LOS ANGELES,90018-2931,10,"(34.0295, -118.321)",34.0295, -118.321
ZUNIGA'S MARKET,3033 W 6TH STREET SUITE #102,LOS ANGELES,90020-1543,10,"(34.0636, -118.2874)",34.0636, -118.2874
SUPERIOR GROCERS,3480 S LA BREA AVENUE,LOS ANGELES,90016-5258,10,"(34.024, -118.3554)",34.024, -118.3554
GUAPOS MARKET,744 S VERMONT AVENUE,LOS ANGELES,90005-1520,10,"(34.0586, -118.2916)",34.0586, -118.2916
RIGHT CHOICE CARIBBEAN MARKET,4233 CRENSHAW BLVD,LOS ANGELES,90008-2536,10,"(34.0065, -118.3345)",34.0065, -118.3345
RENEW WELLNESS,5448   SANCHEZ DRIVE,LOS ANGELES,90008-1029,10,"(34.0167, -118.3642)",34.0167, -118.3642
PICO SMOKE SHOP AND MARKET,3160 W PICO BLVD,LOS ANGELES,90019-0019,10,"(34.047, -118.311)",34.047, -118.311
GOK JEE FOODS,170 S WESTERN AVENUE #A,LOS ANGELES,90004-4128,10,"(34.0716, -118.3091)",34.0716, -118.3091
SPROUTS # 437,1302 S LA BREA AVENUE   SUITE #C,LOS ANGELES,90019-2915,10,"(34.0491, -118.344)",34.0491, -118.344
LEE'S MARKET,2930 W PICO BLVD,LOS ANGELES,90006-3807,10,"(34.0472, -118.304)",34.0472, -118.304
7-ELEVEN STORE 38954A,3785   WILSHIRE BLVD   SUITE #104,LOS ANGELES,90010-2899,10,"(34.0628, -118.3087)",34.0628, -118.3087
MERKATO,1036 1/2 S FAIRFAX AVENUE,LOS ANGELES,90019-4401,10,"(34.0573, -118.3642)",34.0573, -118.3642
PINCHER'S LIQUOR,5121 W PICO BLVD,LOS ANGELES,90019-4133,10,"(34.048, -118.3497)",34.048, -118.3497
7-ELEVEN STORE 21565C,1451 S LA CIENEGA BLVD,LOS ANGELES,90035-3718,10,"(34.0518, -118.3761)",34.0518, -118.3761
RALPHS STORE #16,670 S WESTERN AVENUE,LOS ANGELES,90005-3024,10,"(34.0605, -118.309)",34.0605, -118.309
JONS MARKET #3,3334 W 8TH STREET,LOS ANGELES,90005-2435,10,"(34.0576, -118.3009)",34.0576, -118.3009
LUPITA'S MARKET,2600 W JEFFERSON BLVD,LOS ANGELES,90018-3705,10,"(34.0255, -118.3236)",34.0255, -118.3236
BENGAL BARUA GROUP OF COMPANY INC / BENGAL LIQUOR,3600  1/4 W 3RD STREET,LOS ANGELES,90020-2008,10,"(34.0689, -118.2946)",34.0689, -118.2946
AFRICAN PRODUCE MKS INC | AFRICAN PRODUCE MKT. INC,4564 W WASHINGTON BLVD,LOS ANGELES,90016-1741,10,"(34.0397, -118.339)",34.0397, -118.339
7-ELEVEN STORE 23169B,1075 S FAIRFAX AVENUE,LOS ANGELES,90019-4402,10,"(34.0563, -118.3646)",34.0563, -118.3646
SELECTA SUPERMARKET,4364 W 3RD STREET,LOS ANGELES,90020-3825,10,"(34.0689, -118.3094)",34.0689, -118.3094
PETER PAN MARKET,2791 W PICO BLVD,LOS ANGELES,90006-3913,10,"(34.0472, -118.3001)",34.0472, -118.3001
CHINA KITCHEN,4511 W PICO BLVD,LOS ANGELES,90019-4233,10,"(34.0485, -118.3341)",34.0485, -118.3341
JAYS MARKET,4000 W PICO BLVD,LOS ANGELES,90019-4306,10,"(34.0475, -118.3235)",34.0475, -118.3235
V I P SEAFOODS & POULTRY MARKET,843 S VERMONT AVENUE,LOS ANGELES,90005-1522,10,"(34.0566, -118.2916)",34.0566, -118.2916
ROSITA'S PRODUCE,4808 W WASHINGTON BLVD,LOS ANGELES,90016-1502,10,"(34.0396, -118.3439)",34.0396, -118.3439
SWADESH,4153 W 3RD STREET,LOS ANGELES,90020-3446,10,"(34.0692, -118.3045)",34.0692, -118.3045
7-ELEVEN STORE 37727H,2580 VENICE BLVD,LOS ANGELES,90019-5251,10,"(0.0, 0.0)",0.0, 0.0
HUT BAZAR MINI MARKET,3721 W 3RD STREET,LOS ANGELES,90020-2304,10,"(34.0692, -118.297)",34.0692, -118.297
ZION MARKET,888 S VERMONT AVENUE   UNIT #100,LOS ANGELES,90005-1523,10,"(34.0564, -118.2915)",34.0564, -118.2915
7-ELEVEN #32831B | 7-ELEVEN STORE 32831B,4501 W MARTIN LUTHER KING JR BLVD,LOS ANGELES,90016-6002,10,"(34.0192, -118.3483)",34.0192, -118.3483
7-ELEVEN STORE 38274A,4209 W WASHINGTON BLVD,LOS ANGELES,90016-1879,10,"(34.0402, -118.3313)",34.0402, -118.3313
MASHIUR KHAN AND MOHAMMED M HOSSANE,4151 W 3RD STREET #D,LOS ANGELES,90020-3495,10,"(34.0689, -118.3041)",34.0689, -118.3041
MARISELA MINI MARKET,2146 VENICE BLVD,LOS ANGELES,90006-5240,10,"(34.0435, -118.3042)",34.0435, -118.3042
M & M MINI MARKET 99 CENT STORE,2327 W WASHINGTON BLVD,LOS ANGELES,90018-1446,10,"(34.0399, -118.3126)",34.0399, -118.3126
DESHI FOOD AND GROCERIES,3723 W 3RD STREET,LOS ANGELES,90020-2304,10,"(34.069, -118.2969)",34.069, -118.2969
WASHINGTON MINI MARKET,3404 W WASHINGTON BLVD,LOS ANGELES,90018-1252,10,"(34.0398, -118.3213)",34.0398, -118.3213
SMART & FINAL #364,2949 W PICO BLVD,LOS ANGELES,90006-3809,10,"(34.0472, -118.3046)",34.0472, -118.3046
SMART & FINAL #444,4550 W PICO BLVD SUITE #D303,LOS ANGELES,90019-4271,10,"(34.0487, -118.3357)",34.0487, -118.3357
D J MARKET,3055 W 8TH STREET,LOS ANGELES,90005-1815,10,"(34.0577, -118.2934)",34.0577, -118.2934
LATINOS GOATEMALTECA MARKET,2825 W PICO BLVD,LOS ANGELES,90006-3910,10,"(34.0472, -118.301)",34.0472, -118.301
BETOS MARKET,2252 VENICE BLVD,LOS ANGELES,90006-5115,10,"(34.0435, -118.3077)",34.0435, -118.3077
CALIFORNIA MARKET,450 S WESTERN AVENUE UNIT #201,LOS ANGELES,90020-4199,10,"(0.0, 0.0)",0.0, 0.0
SHOW PLACE LIQUOR,3401 VENICE BLVD,LOS ANGELES,90019-6116,10,"(34.0435, -118.3213)",34.0435, -118.3213
HAN NAM CHAIN SUPERMARKET,2740 W OLYMPIC BLVD,LOS ANGELES,90006-2633,10,"(34.0526, -118.2931)",34.0526, -118.2931
7-ELEVEN STORE 25330C,5791 RODEO ROAD,LOS ANGELES,90016-5013,10,"(34.0216, -118.372)",34.0216, -118.372
7-ELEVEN STORE 20580D,5962 W PICO BLVD,LOS ANGELES,90035-2658,10,"(34.052, -118.3696)",34.052, -118.3696
MARINA MARKET,4484 W ADAMS BLVD,LOS ANGELES,90016-3059,10,"(34.0325, -118.3379)",34.0325, -118.3379
ROSIE'S DISCOUNT STORE,1851 ARLINGTON AVENUE,LOS ANGELES,90019-6225,10,"(34.0399, -118.3177)",34.0399, -118.3177
ORO LIQUOR & MARKET,4376 W 3RD STREET,LOS ANGELES,90020-3825,10,"(34.0689, -118.3097)",34.0689, -118.3097
FOOD 4 LESS #381,1717 S WESTERN AVENUE UNIT #381,LOS ANGELES,90006-5803,10,"(34.0421, -118.309)",34.0421, -118.309
WASHINGTON MINI MARKET,3404 W WASHINGTON BLVD,LOS ANGELES,90018-1252,10,"(34.0398, -118.3213)",34.0398, -118.3213
7 ELEVEN STORE 20763C,5600 SAN VICENTE BLVD,LOS ANGELES,90019-2576,10,"(34.0539, -118.3547)",34.0539, -118.3547
LA GUATEMALTECA MARKET,2825 W PICO BLVD,LOS ANGELES,90006-3910,10,"(34.0475, -118.3012)",34.0475, -118.3012
MF MINI MARKET # 2,4509 W PICO BLVD,LOS ANGELES,90019-4233,10,"(34.0485, -118.334)",34.0485, -118.334
CARNICERIA LA OAXAQUENA,3701 W PICO BLVD,LOS ANGELES,90019-3451,10,"(34.0473, -118.3213)",34.0473, -118.3213
WEST MARKET,3300 W 8TH STREET SUITE #117,LOS ANGELES,90005-2432,10,"(34.0577, -118.2998)",34.0577, -118.2998
CATALINA LIQUOR ON 8TH,3130 W 8TH STREET,LOS ANGELES,90005-1903,10,"(34.0576, -118.2958)",34.0576, -118.2958
MERCADO BENITO JUAREZ,3260 W 8TH STREET,LOS ANGELES,90005-2123,10,"(34.0577, -118.299)",34.0577, -118.299
SKYS GOURMET TACOS,5303 W PICO BLVD,LOS ANGELES,90019-4035,10,"(34.0486, -118.3539)",34.0486, -118.3539
A & A SHINE BARGAIN,735 S VERMONT AVENUE,LOS ANGELES,90005-1518,10,"(34.0587, -118.292)",34.0587, -118.292
JOES MARKET,8874 CADILLAC AVENUE,LOS ANGELES,90034-2002,10,"(34.0401, -118.3842)",34.0401, -118.3842
REDONDO MARKET,5156 W WASHINGTON BLVD,LOS ANGELES,90016-1308,10,"(34.0411, -118.3526)",34.0411, -118.3526
7-ELEVEN,4930 W PICO BLVD,LOS ANGELES,90019-4228,10,"(34.0479, -118.3441)",34.0479, -118.3441
ALL VEGAN BABE,5125 W WASHINGTON BLVD,LOS ANGELES,90016-1307,10,"(34.0413, -118.3514)",34.0413, -118.3514
MINI MART,8503 VENICE BLVD,LOS ANGELES,90034-2548,10,"(34.0352, -118.3779)",34.0352, -118.3779
ADVANCE FOOD MARKET,5469 W ADAMS BLVD,LOS ANGELES,90016-2639,10,"(34.0324, -118.362)",34.0324, -118.362
LIVING WATER,1130 S WESTERN AVENUE,LOS ANGELES,90006-2315,10,"(34.0499, -118.3089)",34.0499, -118.3089
LA FAMILY MARKET,3600 W PICO BLVD,LOS ANGELES,90019-3425,10,"(34.0472, -118.32)",34.0472, -118.32
PICKFORD MARKET,4566 PICKFORD STREET,LOS ANGELES,90019-5817,10,"(34.0403, -118.339)",34.0403, -118.339
7-ELEVEN STORE 26188G,1874 S WESTERN AVENUE,LOS ANGELES,90006-5800,10,"(34.0404, -118.3089)",34.0404, -118.3089
MIKES PRODUCE MARKET,758 S VERMONT AVENUE,LOS ANGELES,90005-1520,10,"(34.0583, -118.2916)",34.0583, -118.2916
HWANG HAE DOE RESTAURANT,429 N WESTERN AVENUE UNIT #7,LOS ANGELES,90004-2600,10,"(34.0788, -118.3091)",34.0788, -118.3091
MOTHERS NUTRITIONAL CENTER,3665 CRENSHAW BLVD,LOS ANGELES,90016-4849,10,"(34.0209, -118.3351)",34.0209, -118.3351
ADAMS BARGAIN,4350 W ADAMS BLVD,LOS ANGELES,90018-2241,10,"(34.0325, -118.3334)",34.0325, -118.3334
HI MARKET,4137 W PICO BLVD,LOS ANGELES,90019-4311,10,"(34.0477, -118.326)",34.0477, -118.326
TAYTU MINE MART,4379 W PICO BLVD   SUITE #1,LOS ANGELES,90019-3152,10,"(34.0484, -118.3299)",34.0484, -118.3299
RASTA MINI MART,4058   CRENSHAW BLVD,LOS ANGELES,90008-2515,10,"(34.0104, -118.3348)",34.0104, -118.3348
INDIA SPICES & GROCERY,5994 W PICO BLVD,LOS ANGELES,90035-2657,10,"(34.0523, -118.3708)",34.0523, -118.3708
R-RANCH MARKET #14 | R-RANCH MARKET#14,5212 W ADAMS BLVD,LOS ANGELES,90016-2625,10,"(34.0325, -118.3556)",34.0325, -118.3556
CIMARRON MARKET,2679 CIMARRON STREET,LOS ANGELES,90018-2528,10,"(34.0311, -118.3151)",34.0311, -118.3151
VONS #2268 | VONS 2268,1430 S FAIRFAX AVENUE,LOS ANGELES,90019-3745,10,"(34.05, -118.3668)",34.05, -118.3668
TAG'S MART,3820   CRENSHAW BLVD,LOS ANGELES,90008-1813,10,"(34.0167, -118.3344)",34.0167, -118.3344
ADAMS LIQUOR,4620 W ADAMS BLVD,LOS ANGELES,90016-3002,10,"(34.0322, -118.3412)",34.0322, -118.3412
ARCO # 42186,3412   CRENSHAW BLVD,LOS ANGELES,90016-4802,10,"(34.0253, -118.3347)",34.0253, -118.3347
7 ELEVEN STORE 15964F,265 S KINGSLEY DRIVE,LOS ANGELES,90004-4307,10,"(34.0693, -118.3033)",34.0693, -118.3033
YONA MARKET,4030 W MARTIN LUTHER KING JR BLVD,LOS ANGELES,90008-1716,10,"(34.0158, -118.3435)",34.0158, -118.3435
SELAM MARKET & DELI,5534 W PICO BLVD,LOS ANGELES,90019-3918,10,"(34.0494, -118.3589)",34.0494, -118.3589
RALPHS GROCERY CO #291,4760 W PICO BLVD,LOS ANGELES,90019-4235,10,"(34.0484, -118.3397)",34.0484, -118.3397
7-ELEVEN STORE 25848D,3470 W 6TH STREET,LOS ANGELES,90020-2556,10,"(34.0631, -118.2975)",34.0631, -118.2975
DELIAS MINI MARKET,3600 W PICO BLVD,LOS ANGELES,90019-3425,10,"(34.047, -118.3203)",34.047, -118.3203
MAX CROWDER,2915 W OLYMPIC BLVD,LOS ANGELES,90006-2505,10,"(34.0529, -118.2982)",34.0529, -118.2982
THE MARKET BY SUPERIOR,4040 W WASHINGTON BLVD,LOS ANGELES,90018-1064,10,"(34.0397, -118.3278)",34.0397, -118.3278
BANCHAN CHOSUM,356 S WESTERN AVENUE #106,LOS ANGELES,90020-3814,10,"(34.0679, -118.3091)",34.0679, -118.3091
BUNCH MUNCH,330 S HARVARD BLVD   UNIT #301,LOS ANGELES,90020-6313,10,"(34.0679, -118.3037)",34.0679, -118.3037
NUMERO UNO RANCHO MARKET #6,4225 MONTCLAIR STREET,LOS ANGELES,90018-2256,10,"(34.0325, -118.3327)",34.0325, -118.3327
SMART & FINAL #470,2929 CRENSHAW BLVD,LOS ANGELES,90016-4266,10,"(0.0, 0.0)",0.0, 0.0
LOS DOS AMIGOS MARKET,4475 W PICO BLVD,LOS ANGELES,90019-4243,10,"(34.0483, -118.333)",34.0483, -118.333
GALLERIA MARKET,3250 W OLYMPIC BLVD #100,LOS ANGELES,90006-2370,10,"(34.0526, -118.3074)",34.0526, -118.3074
YOUN EE HUH,3502 W 8TH STREET,LOS ANGELES,90005-2902,10,"(34.0575, -118.3068)",34.0575, -118.3068
ALBERTSONS #4131,3901 CRENSHAW BLVD,LOS ANGELES,90008-2522,10,"(34.0145, -118.3351)",34.0145, -118.3351
RP COIN LAUNDRY,4625 W ADAMS BLVD,LOS ANGELES,90016-3001,10,"(34.0325, -118.341)",34.0325, -118.341
PANCHOS GARDENER,2138 S PALM GROVE AVENUE,LOS ANGELES,90016-2318,10,"(34.0366, -118.3427)",34.0366, -118.3427
M&A AROMA,3680   WILSHIRE BLVD   SUITE #301,LOS ANGELES,90010-2708,10,"(34.0607, -118.3062)",34.0607, -118.3062
H K SUPERMARKET,124 N WESTERN AVENUE,LOS ANGELES,90004-4106,10,"(34.0736, -118.3091)",34.0736, -118.3091
JJ FAMILY MARKET,3524 W PICO BLVD,LOS ANGELES,90019-4533,10,"(34.0471, -118.3193)",34.0471, -118.3193
LIQUOR TOWN,1298 S LA BREA AVENUE,LOS ANGELES,90019-1628,10,"(34.0504, -118.3441)",34.0504, -118.3441
RAHEL'S INTERNATIONAL VEGGIE CUISINE,1047 S FAIRFAX AVENUE,LOS ANGELES,90019-4402,10,"(34.057, -118.3643)",34.057, -118.3643
7-ELEVEN STORE 37723B,2030 W 8TH STREET SUITE #A,LOS ANGELES,90057-4016,10,"(0.0, 0.0)",0.0, 0.0
INJERA.COM,1046 S FAIRFAX AVENUE,LOS ANGELES,90019-4401,10,"(34.057, -118.3643)",34.057, -118.3643
CATALINA LIQUOR ON 8TH,3130 W 8TH STREET,LOS ANGELES,90005-1903,10,"(34.0577, -118.2954)",34.0577, -118.2954
JC MART,3550   WILSHIRE BLVD   SUITE #114,LOS ANGELES,90010-2402,10,"(34.0612, -118.3023)",34.0612, -118.3023
TUCHAN MINI MARKET AND SUPPLY,2013 W JEFFERSON BLVD,LOS ANGELES,90018-3419,10,"(34.0258, -118.3156)",34.0258, -118.3156
JAN-ETTS LIQUOR | JANETTE'S LIQUOR,4028 W JEFFERSON BLVD,LOS ANGELES,90016-4123,10,"(34.0255, -118.3397)",34.0255, -118.3397
RALPHS GROCERY CO #185,5245 W CENTINELA AVENUE,LOS ANGELES,90045-2001,11,"(33.9773, -118.3722)",33.9773, -118.3722
SUNNY LIQUOR & MARKET,12815 VENICE BLVD,LOS ANGELES,90066-3507,11,"(0.0, 0.0)",0.0, 0.0
RALPHS GROCERY CO #210,11727 W OLYMPIC BLVD,LOS ANGELES,90064-1202,11,"(34.0338, -118.4485)",34.0338, -118.4485
JAN'S LIQUOR,12300 W PICO BLVD,LOS ANGELES,90064-1137,11,"(34.0284, -118.452)",34.0284, -118.452
POOR RICH'S DELI,5744 W MANCHESTER AVENUE,LOS ANGELES,90045-4417,11,"(33.9596, -118.3821)",33.9596, -118.3821
WHOLE FOODS MARKET,11737 SAN VICENTE BLVD,LOS ANGELES,90049-5005,11,"(34.0534, -118.4669)",34.0534, -118.4669
7-ELEVEN STORE 41355H,9210 S SEPULVEDA BLVD,LOS ANGELES,90045-4805,11,"(0.0, 0.0)",0.0, 0.0
365 BY WHOLE FOODS MARKET,11666 NATIONAL BLVD,LOS ANGELES,90064-3802,11,"(34.0231, -118.4376)",34.0231, -118.4376
TOKYO CENTRAL,12121 W PICO BLVD,LOS ANGELES,90064-1162,11,"(34.0292, -118.4504)",34.0292, -118.4504
EREWHON,585   VENICE,LOS ANGELES,90291-0000,11,"(0.0, 0.0)",0.0, 0.0
QUICK PICK MARKET,11708 VENICE BLVD,LOS ANGELES,90066-3902,11,"(34.0085, -118.4246)",34.0085, -118.4246
EDEN L MARKET,11933 SANTA MONICA BLVD,LOS ANGELES,90025-2706,11,"(34.0416, -118.4608)",34.0416, -118.4608
STAR MARKET/DELI,12146 SANTA MONICA BLVD,LOS ANGELES,90025-2516,11,"(34.0403, -118.4638)",34.0403, -118.4638
RALPHS #709 RALPHS GROCERY CO,11361 NATIONAL BLVD,LOS ANGELES,90064-3726,11,"(34.0256, -118.4327)",34.0256, -118.4327
7-ELEVEN STORE 39685A,12225 SANTA MONICA BLVD,LOS ANGELES,90025-2517,11,"(34.0398, -118.4648)",34.0398, -118.4648
BEETHOVEN MARKET,12904 PALMS BLVD,LOS ANGELES,90066-2249,11,"(34.0062, -118.4463)",34.0062, -118.4463
TARA AND JB'S MARKET,12131 WASHINGTON PLACE UNIT #E,LOS ANGELES,90066-5272,11,"(0.0, 0.0)",0.0, 0.0
RALPHS GROCERY CO #44,12057 WILSHIRE BLVD,LOS ANGELES,90025-1201,11,"(34.0447, -118.4666)",34.0447, -118.4666
RALPHS GROCERY CO #209,8825 S SEPULVEDA BLVD,LOS ANGELES,90045-4809,11,"(33.957, -118.3962)",33.957, -118.3962
WHOLE FOODS MARKET,12746 W JEFFERSON BLVD,LOS ANGELES,90066-7032,11,"(33.9775, -118.4174)",33.9775, -118.4174
VONS $4021,6571 W 80TH STREET,LOS ANGELES,90045-1126,11,"(33.9689, -118.4056)",33.9689, -118.4056
BODEGA MARKET,4557 S CENTINELA AVENUE,LOS ANGELES,90066-6249,11,"(33.9918, -118.422)",33.9918, -118.422
NORTGATE MARKET #41,4700 INGLEWOOD BLVD,LOS ANGELES,90230-5896,11,"(33.9932, -118.4153)",33.9932, -118.4153
SAINSBURY MARKET,12200 WILSHIRE BLVD #101,LOS ANGELES,90025-1217,11,"(34.0434, -118.4683)",34.0434, -118.4683
JOE SUPERMARKET,12131   WASHINGTON PLACE   #E-F,LOS ANGELES,90066-5272,11,"(34.001, -118.4278)",34.001, -118.4278
MAR VISTA RANCH MARKET,12420 VENICE BLVD #105,LOS ANGELES,90066-3830,11,"(34.0034, -118.4338)",34.0034, -118.4338
7-ELEVEN STORE 18867D,5880 W MANCHESTER AVENUE,LOS ANGELES,90045-4419,11,"(33.9595, -118.3852)",33.9595, -118.3852
TRADER JOE'S #215,11755 W OLYMPIC BLVD,LOS ANGELES,90064-1211,11,"(34.0336, -118.4488)",34.0336, -118.4488
7-ELEVEN STORE 23949B,1519 S BUNDY DRIVE,LOS ANGELES,90025-2603,11,"(34.0398, -118.4629)",34.0398, -118.4629
SANTA MONICA KOSHER MARKET,11540   SANTA MONICA BLVD   SUITE #101,LOS ANGELES,90025-7905,11,"(34.045, -118.4525)",34.045, -118.4525
TRADER JOES NO 33,8645 S SEPULVEDA BLVD,LOS ANGELES,90045-4001,11,"(33.9592, -118.3962)",33.9592, -118.3962
7-ELEVEN STORE 17590E,2541 S BARRINGTON AVENUE,LOS ANGELES,90064-2828,11,"(34.0279, -118.4428)",34.0279, -118.4428
7-ELEVEN STORE 23949A,1519 S BUNDY DRIVE,LOS ANGELES,90025-2603,11,"(34.0399, -118.4626)",34.0399, -118.4626
VICENTE FOODS,12027 SAN VICENTE BLVD,LOS ANGELES,90049-4922,11,"(34.0521, -118.4732)",34.0521, -118.4732
NIJIYA MARKET,2130 SAWTELLE BLVD #105,LOS ANGELES,90025-6268,11,"(34.0391, -118.442)",34.0391, -118.442
911 FOOD MART,11909 W PICO BLVD,LOS ANGELES,90064-1312,11,"(0.0, 0.0)",0.0, 0.0
RALPH'S GROCERY CO #278,8701 LINCOLN BLVD,LOS ANGELES,90045-3504,11,"(33.9588, -118.4183)",33.9588, -118.4183
SMART & FINAL #315,12210 SANTA MONICA BLVD,LOS ANGELES,90025-2518,11,"(34.04, -118.4646)",34.04, -118.4646
VANS MARKET,12707   WASHINGTON PLACE,LOS ANGELES,90066-4103,11,"(33.9973, -118.435)",33.9973, -118.435
PLAZA OAXACA,3831 GRAND VIEW BLVD,LOS ANGELES,90066-4405,11,"(34.0039, -118.4309)",34.0039, -118.4309
